{"fetched_at":"2026-03-29T16:36:15Z","count":15609,"tles":[{"name":"STARLINK-5210","line1":"1 54082U 22136AH  26087.84750724  .00000147  00000+0  27339-4 0  9992","line2":"2 54082  53.2167 248.3022 0001334  91.4139 268.7006 15.08843060189871","category":"Starlink"}]}